SPOT 6                  
1 38755U 12047A   26195.98175632  .00000073  00000+0  25482-4 0  9990
2 38755  98.2115 262.9632 0001103  84.2923 275.8402 14.58538459737107
SPOT 7                  
1 40053U 14034A   26195.98789970 -.00000090  00000+0 -91568-5 0  9998
2 40053  98.0622 257.7613 0001610  94.8787 265.2598 14.60979771641192
