{"fetched_at":"2026-07-15T06:36:27.377Z","source":"https://celestrak.org/NORAD/elements/gp.php?NAME=SPOT&FORMAT=JSON","constellation":"spot","records":[{"OBJECT_NAME":"SPOT 6","OBJECT_ID":"2012-047A","EPOCH":"2026-07-14T23:33:43.746048","CLASSIFICATION_TYPE":"U","MEAN_MOTION":14.58538459,"ECCENTRICITY":0.00011035,"INCLINATION":98.2115,"RA_OF_ASC_NODE":262.9632,"ARG_OF_PERICENTER":84.2923,"MEAN_ANOMALY":275.8402,"EPHEMERIS_TYPE":0,"NORAD_CAT_ID":38755,"ELEMENT_SET_NO":999,"REV_AT_EPOCH":73710,"BSTAR":0.000025481555,"MEAN_MOTION_DOT":7.3e-7,"MEAN_MOTION_DDOT":0},{"OBJECT_NAME":"SPOT 7","OBJECT_ID":"2014-034A","EPOCH":"2026-07-14T23:42:34.534080","CLASSIFICATION_TYPE":"U","MEAN_MOTION":14.60979771,"ECCENTRICITY":0.00016105,"INCLINATION":98.0622,"RA_OF_ASC_NODE":257.7613,"ARG_OF_PERICENTER":94.8787,"MEAN_ANOMALY":265.2598,"EPHEMERIS_TYPE":0,"NORAD_CAT_ID":40053,"ELEMENT_SET_NO":999,"REV_AT_EPOCH":64119,"BSTAR":-0.000009156821,"MEAN_MOTION_DOT":-9e-7,"MEAN_MOTION_DDOT":0}]}
